#dP2024  9 21 18  0  0.00000000      96 __u+U IGS20 EXT  IAC
## 2332 583200.00000000   900.00000000 60574 0.7500000000000
+   54   G01G02G03G04G05G06G07G08G09G10G11G12G13G14G15G16G17
+        G18G19G20G21G22G23G24G25G26G27G28G29G30G31G32R01R02
+        R03R04R05R07R08R09R11R12R14R15R16R17R18R19R20R21R22
+        R24R25R26  0  0  0  0  0  0  0  0  0  0  0  0  0  0
+          0  0  0  0  0  0  0  0  0  0  0  0  0  0  0  0  0
++         0  8  8  8  8  7  9  8  8  8  8  8  8  7  8  7  7
++         8  7  8  7  8  8  7  7  8  7  7  7  8  8  8  8  8
++         9  8  7  6  8  9  8  7  9  7  8  7  7  9  9  7  8
++         8  8  8  0  0  0  0  0  0  0  0  0  0  0  0  0  0
++         0  0  0  0  0  0  0  0  0  0  0  0  0  0  0  0  0
%c M  cc GPS ccc cccc cccc cccc cccc ccccc ccccc ccccc ccccc
%c cc cc ccc ccc cccc cccc cccc cccc ccccc ccccc ccccc ccccc
%f  0.0000000  0.000000000  0.00000000000  0.000000000000000
%f  0.0000000  0.000000000  0.00000000000  0.000000000000000
%i    0    0    0    0      0      0      0      0         0
%i    0    0    0    0      0      0      0      0         0
/* IAC                                ULTRA-RAPID PREDICTION
/* S/V CLOCKS ARE ALIGNED TO GNSS TIME                      
/* G:C1WC2W R:C1PC2P E:C1XC5X C:C2IC6I J:C1CC2S             
/* PCV:IGS20_2317 OL/AL:FES2004  NONE     YN ORB:CoN CLK:CoN
*  2024 09 21 21 30  0.00000000
PG01   8162.775826 -22789.415091  10158.343657    191.416310
PG02 -22517.261331 -13903.116925  -3357.151731   -353.181440
PG03 -12380.071622 -13202.298989  19311.173642    545.712791
PG04 -19003.751018  -4512.640575  18078.006537    447.987928
PG05   5721.460902  24814.379568  -7606.392993   -187.357193
PG06  -9238.316128  11403.733721  22208.739068     14.825794
PG07 -23280.104261  -4252.984925 -11972.676791    -35.203618
PG08  -9193.392476 -12526.619084 -21669.413034    360.286716
PG09 -23849.728452   5323.957557  10385.672573    366.368796
PG10  10431.999220 -18984.577941 -14921.206139   -132.890988
PG11   5795.918964  18848.351704  17858.956176   -737.058892
PG12  10390.002516  17149.964977  17158.772394   -539.752406
PG13   -512.443575  15837.890720 -21505.608633    677.704730
PG14 -13117.396623  15352.494737 -17092.625006    500.790528
PG15  10957.632840  11724.004186 -21693.260000    206.967559
PG16    -57.578572 -26020.887447  -4275.692890   -174.823995
PG17 -21750.849967  14476.321646   5681.379613    619.786857
PG18  22643.322957   3527.729013 -13597.695425   -654.616731
PG19 -16250.335939  16268.843212  12761.439053    541.044656
PG20    936.582977  26279.428746   4342.203867    370.405398
PG21 -19532.576552 -16404.507170  -8718.822315    101.296026
PG22  -9951.165072  22278.616977 -10439.291889    -64.105729
PG23  14390.504753  -5773.799231 -21501.755951    325.277580
PG24  21026.035275  15463.705892  -6426.124288   -486.448001
PG25  15097.925216   4142.733409  21141.064409    499.628009
PG26   5135.766289 -24281.254851   8756.258390     73.636914
PG27   2617.824513 -17457.761669 -20007.819621    -33.900110
PG28  11301.719873 -10787.276794  21467.345874   -419.558132
PG29  23495.516710  -1197.864450  12410.694679   -576.344819
PG30 -17681.489474   5557.471403 -18964.033932   -316.922401
PG31   -721.557343 -17209.156384  19882.882726   -224.406972
PG32  20070.276563 -16138.271376   6258.988599   -594.883206
PR01 -16358.167960   6254.145192  18536.196598     98.544389
PR02 -18008.497466  17659.905825   4090.795467    -24.771848
PR03  -9137.278760  19980.916815 -12975.838553    108.000601
PR04   4089.067996  11141.010202 -22559.462409    255.783011
PR05  15359.896021  -3416.825230 -20062.499347    138.005375
PR07   8643.872374 -19787.579492  13567.481601     91.363279
PR08  -4544.457173 -10955.371912  22630.666667     -6.410750
PR09   7315.078485 -11023.598676  21846.159881    210.443181
PR11 -10586.007527 -22775.204557  -4505.731887     11.235129
PR12 -13220.160235  -8206.974064 -20181.436742     45.111108
PR14   2673.241370  22809.485197 -11064.525256     26.955408
PR15  11099.902670  22099.345659   6257.137179     75.636670
PR16  13156.100532   8350.484317  20195.794766     29.329832
PR17   -239.695079  10760.572924  23139.531288    124.064046
PR18  16285.970191  10920.149127  16311.280078    163.190768
PR19  24310.199879   7181.979654   2921.987971   -292.213044
PR20  18715.606540  -3278.521299 -16991.489126   -119.426795
PR21   1228.898687 -10504.693701 -23207.030758   -136.428349
PR22 -17012.194036 -11348.974429 -15219.926258     41.198423
PR24 -18209.055638   4770.092476  17220.261162    -72.965644
PR25    389.372675 -11096.951517 -22954.874898    -98.523231
PR26  -3299.565446 -12150.201164  22201.514833     36.548822
*  2024 09 21 21 45  0.00000000
PG01   8415.924957 -21421.690573  12583.195323    191.407578
PG02 -21891.116053 -13847.999992  -6138.106428   -353.174223
PG03 -12286.168906 -15344.987639  17746.838190    545.724514
PG04 -17172.156616  -5631.706023  19526.389316    447.994275
PG05   5545.415506  25516.134481  -4841.023227   -187.358342
PG06 -11379.662398  10118.697638  21842.478723     14.802029
PG07 -24288.518090  -5088.912591  -9541.472858    -35.199798
PG08  -7109.136108 -13827.092595 -21623.861177    360.298108
PG09 -22827.984914   4433.605117  12793.308816    366.383351
PG10  10591.202113 -17119.481457 -16932.950320   -132.902299
PG11   3939.924257  17817.551571  19356.671933   -737.062445
PG12  10099.573623  19037.020929  15273.171474   -539.754949
PG13  -2731.298857  16666.321759 -20666.630417    677.706532
PG14 -13262.719754  13284.190382 -18658.361140    500.798175
PG15   9110.363188  13225.259529 -21669.219107    206.971508
PG16    250.146401 -26290.227122  -1417.689483   -174.814889
PG17 -22241.321474  14482.404022   2878.587662    619.776386
PG18  23775.232733   4390.803594 -11230.287492   -654.618541
PG19 -17581.306106  16613.247695  10313.552578    541.049039
PG20    572.950385  25693.124741   7078.338448    370.405063
PG21 -18406.458740 -16072.512676 -11204.962238    101.295352
PG22 -10042.654600  20887.176759 -12830.635575    -64.109029
PG23  14514.288540  -3286.739413 -21956.759465    325.285109
PG24  20162.908574  15375.710996  -9019.619469   -486.447564
PG25  15105.511282   6599.050083  20535.784363    499.628015
PG26   5571.676376 -23134.411564  11237.350779     73.629072
PG27   4548.956553 -18456.189251 -18665.302013    -33.900160
PG28  13415.051555  -9605.252340  20802.561380   -419.570432
PG29  22179.940182   -361.324085  14660.284147   -576.342586
PG30 -19443.014114   4375.794425 -17529.728669   -316.915949
PG31   1379.861069 -16075.760387  20799.984111   -224.406523
PG32  20661.271584 -16192.749091   3460.239656   -594.879776
PR01 -14850.924430   4390.441875  20260.026629     98.545468
PR02 -17437.192938  17234.178172   7211.700932    -24.772025
PR03  -9923.156397  21189.671962 -10196.922996    108.001313
PR04   2396.422030  13287.455661 -21623.830592    255.784669
PR05  13666.292360  -1486.747919 -21475.804748    138.005896
PR07   9479.657139 -21043.723091  10832.702589     91.363990
PR08  -2869.423975 -13107.144893  21738.206410     -6.410749
PR09   8370.760438  -8503.635196  22574.762618    210.445133
PR11 -10856.767020 -23055.381636  -1321.211572     11.234195
PR12 -14165.582920 -10402.906737 -18455.172384     45.111489
PR14   2186.346380  21351.786920 -13752.243363     26.955483
PR15  11429.239621  22588.324165   3120.701734     75.636236
PR16  14118.165312  10532.535142  18446.378676     29.330154
PR17  -3058.482855  10306.186814  23141.223893    124.067154
PR18  14194.737814  10421.541399  18455.960935    163.192461
PR19  23807.917746   6857.936501   6104.383559   -292.214438
PR20  20663.693778  -3036.737337 -14611.976480   -119.427236
PR21   4051.161733 -10033.902906 -23097.157928   -136.431276
PR22 -15047.536436 -10855.567508 -17476.945752     41.189936
PR24 -20181.938653   4565.243642  14917.990805    -72.967046
PR25   3172.079262 -10540.415174 -23003.590065    -98.520668
PR26  -1684.592791 -14275.186798  21091.155449     36.564407
EOF
